[{"OBJECT_NAME":"ONEWEB-0206","OBJECT_ID":"2021-031T","EPOCH":"2026-01-19T07:12:46.021824","MEAN_MOTION":13.14501862,"ECCENTRICITY":0.0001698,"INCLINATION":87.9041,"RA_OF_ASC_NODE":319.3611,"ARG_OF_PERICENTER":69.2966,"MEAN_ANOMALY":290.8346,"EPHEMERIS_TYPE":0,"CLASSIFICATION_TYPE":"U","NORAD_CAT_ID":48227,"ELEMENT_SET_NO":999,"REV_AT_EPOCH":22866,"BSTAR":3.6075774e-5,"MEAN_MOTION_DOT":2.6e-7,"MEAN_MOTION_DDOT":0},{"OBJECT_NAME":"ONEWEB-0182","OBJECT_ID":"2021-031U","EPOCH":"2026-01-19T07:05:55.045536","MEAN_MOTION":13.14503641,"ECCENTRICITY":0.00019387,"INCLINATION":87.9017,"RA_OF_ASC_NODE":319.3829,"ARG_OF_PERICENTER":78.8833,"MEAN_ANOMALY":281.2515,"EPHEMERIS_TYPE":0,"CLASSIFICATION_TYPE":"U","NORAD_CAT_ID":48228,"ELEMENT_SET_NO":999,"REV_AT_EPOCH":22887,"BSTAR":0.00024217759,"MEAN_MOTION_DOT":1.03e-6,"MEAN_MOTION_DDOT":0},{"OBJECT_NAME":"ONEWEB-0186","OBJECT_ID":"2021-031V","EPOCH":"2026-01-19T07:21:54.868320","MEAN_MOTION":13.14502714,"ECCENTRICITY":0.00017165,"INCLINATION":87.9034,"RA_OF_ASC_NODE":319.3631,"ARG_OF_PERICENTER":81.8502,"MEAN_ANOMALY":278.2822,"EPHEMERIS_TYPE":0,"CLASSIFICATION_TYPE":"U","NORAD_CAT_ID":48229,"ELEMENT_SET_NO":999,"REV_AT_EPOCH":22882,"BSTAR":-0.0002565248,"MEAN_MOTION_DOT":-8.2e-7,"MEAN_MOTION_DDOT":0},{"OBJECT_NAME":"ONEWEB-0181","OBJECT_ID":"2021-031W","EPOCH":"2026-01-19T06:49:56.658720","MEAN_MOTION":13.14503123,"ECCENTRICITY":0.00015865,"INCLINATION":87.9017,"RA_OF_ASC_NODE":319.4163,"ARG_OF_PERICENTER":82.8663,"MEAN_ANOMALY":277.2647,"EPHEMERIS_TYPE":0,"CLASSIFICATION_TYPE":"U","NORAD_CAT_ID":48230,"ELEMENT_SET_NO":999,"REV_AT_EPOCH":22867,"BSTAR":0.00052878146,"MEAN_MOTION_DOT":2.09e-6,"MEAN_MOTION_DDOT":0},{"OBJECT_NAME":"ONEWEB-0188","OBJECT_ID":"2021-031X","EPOCH":"2026-01-19T05:55:06.824064","MEAN_MOTION":13.14503838,"ECCENTRICITY":0.00017864,"INCLINATION":87.902,"RA_OF_ASC_NODE":319.421,"ARG_OF_PERICENTER":79.8313,"MEAN_ANOMALY":280.3018,"EPHEMERIS_TYPE":0,"CLASSIFICATION_TYPE":"U","NORAD_CAT_ID":48231,"ELEMENT_SET_NO":999,"REV_AT_EPOCH":22857,"BSTAR":-0.0004142889,"MEAN_MOTION_DOT":-1.41e-6,"MEAN_MOTION_DDOT":0},{"OBJECT_NAME":"ONEWEB-0220","OBJECT_ID":"2021-031Y","EPOCH":"2026-01-19T06:52:12.501984","MEAN_MOTION":13.14504041,"ECCENTRICITY":0.00017881,"INCLINATION":87.9032,"RA_OF_ASC_NODE":319.3663,"ARG_OF_PERICENTER":85.2554,"MEAN_ANOMALY":274.878,"EPHEMERIS_TYPE":0,"CLASSIFICATION_TYPE":"U","NORAD_CAT_ID":48232,"ELEMENT_SET_NO":999,"REV_AT_EPOCH":22884,"BSTAR":0.00058820725,"MEAN_MOTION_DOT":2.31e-6,"MEAN_MOTION_DDOT":0},{"OBJECT_NAME":"ONEWEB-0165","OBJECT_ID":"2021-031Z","EPOCH":"2026-01-19T07:33:19.363680","MEAN_MOTION":13.14503643,"ECCENTRICITY":0.00014288,"INCLINATION":87.9019,"RA_OF_ASC_NODE":319.3817,"ARG_OF_PERICENTER":84.2039,"MEAN_ANOMALY":275.9253,"EPHEMERIS_TYPE":0,"CLASSIFICATION_TYPE":"U","NORAD_CAT_ID":48233,"ELEMENT_SET_NO":999,"REV_AT_EPOCH":22880,"BSTAR":-0.00031922676,"MEAN_MOTION_DOT":-1.06e-6,"MEAN_MOTION_DDOT":0},{"OBJECT_NAME":"ONEWEB-0199","OBJECT_ID":"2021-031AA","EPOCH":"2026-01-19T07:10:29.381088","MEAN_MOTION":13.14503912,"ECCENTRICITY":0.00017633,"INCLINATION":87.9031,"RA_OF_ASC_NODE":319.3638,"ARG_OF_PERICENTER":72.9518,"MEAN_ANOMALY":287.1804,"EPHEMERIS_TYPE":0,"CLASSIFICATION_TYPE":"U","NORAD_CAT_ID":48234,"ELEMENT_SET_NO":999,"REV_AT_EPOCH":22870,"BSTAR":6.648862e-5,"MEAN_MOTION_DOT":3.7e-7,"MEAN_MOTION_DDOT":0},{"OBJECT_NAME":"ONEWEB-0203","OBJECT_ID":"2021-031AB","EPOCH":"2026-01-19T06:56:47.084640","MEAN_MOTION":13.14503594,"ECCENTRICITY":0.00014995,"INCLINATION":87.9025,"RA_OF_ASC_NODE":319.3653,"ARG_OF_PERICENTER":74.0081,"MEAN_ANOMALY":286.1214,"EPHEMERIS_TYPE":0,"CLASSIFICATION_TYPE":"U","NORAD_CAT_ID":48235,"ELEMENT_SET_NO":999,"REV_AT_EPOCH":22871,"BSTAR":0.00055657683,"MEAN_MOTION_DOT":2.19e-6,"MEAN_MOTION_DDOT":0},{"OBJECT_NAME":"ONEWEB-0197","OBJECT_ID":"2021-031AC","EPOCH":"2026-01-19T06:20:02.889312","MEAN_MOTION":13.14503243,"ECCENTRICITY":0.00020555,"INCLINATION":87.9031,"RA_OF_ASC_NODE":319.3698,"ARG_OF_PERICENTER":80.18,"MEAN_ANOMALY":279.9561,"EPHEMERIS_TYPE":0,"CLASSIFICATION_TYPE":"U","NORAD_CAT_ID":48236,"ELEMENT_SET_NO":999,"REV_AT_EPOCH":22862,"BSTAR":0.00033788508,"MEAN_MOTION_DOT":1.38e-6,"MEAN_MOTION_DDOT":0},{"OBJECT_NAME":"ONEWEB-0194","OBJECT_ID":"2021-031AD","EPOCH":"2026-01-19T02:11:21.029568","MEAN_MOTION":13.1450208,"ECCENTRICITY":0.00017087,"INCLINATION":87.903,"RA_OF_ASC_NODE":319.4212,"ARG_OF_PERICENTER":70.318,"MEAN_ANOMALY":289.8134,"EPHEMERIS_TYPE":0,"CLASSIFICATION_TYPE":"U","NORAD_CAT_ID":48237,"ELEMENT_SET_NO":999,"REV_AT_EPOCH":22877,"BSTAR":-0.00081733931,"MEAN_MOTION_DOT":-2.9e-6,"MEAN_MOTION_DDOT":0},{"OBJECT_NAME":"ONEWEB-0193","OBJECT_ID":"2021-031AE","EPOCH":"2026-01-19T06:13:23.969280","MEAN_MOTION":13.14503234,"ECCENTRICITY":0.00017613,"INCLINATION":87.9026,"RA_OF_ASC_NODE":319.3814,"ARG_OF_PERICENTER":63.3751,"MEAN_ANOMALY":296.7559,"EPHEMERIS_TYPE":0,"CLASSIFICATION_TYPE":"U","NORAD_CAT_ID":48238,"ELEMENT_SET_NO":999,"REV_AT_EPOCH":22874,"BSTAR":0.00026377107,"MEAN_MOTION_DOT":1.11e-6,"MEAN_MOTION_DDOT":0},{"OBJECT_NAME":"ONEWEB-0191","OBJECT_ID":"2021-031AF","EPOCH":"2026-01-19T06:29:23.212320","MEAN_MOTION":13.1450338,"ECCENTRICITY":0.00018366,"INCLINATION":87.9021,"RA_OF_ASC_NODE":319.3718,"ARG_OF_PERICENTER":78.9612,"MEAN_ANOMALY":281.1724,"EPHEMERIS_TYPE":0,"CLASSIFICATION_TYPE":"U","NORAD_CAT_ID":48239,"ELEMENT_SET_NO":999,"REV_AT_EPOCH":22860,"BSTAR":0.00058496576,"MEAN_MOTION_DOT":2.3e-6,"MEAN_MOTION_DDOT":0},{"OBJECT_NAME":"ONEWEB-0195","OBJECT_ID":"2021-031AG","EPOCH":"2026-01-19T05:56:14.663616","MEAN_MOTION":13.1450505,"ECCENTRICITY":0.00014191,"INCLINATION":87.9028,"RA_OF_ASC_NODE":319.3742,"ARG_OF_PERICENTER":88.1388,"MEAN_ANOMALY":271.9905,"EPHEMERIS_TYPE":0,"CLASSIFICATION_TYPE":"U","NORAD_CAT_ID":48240,"ELEMENT_SET_NO":999,"REV_AT_EPOCH":22858,"BSTAR":-0.00030568917,"MEAN_MOTION_DOT":-1.01e-6,"MEAN_MOTION_DDOT":0},{"OBJECT_NAME":"ONEWEB-0201","OBJECT_ID":"2021-031AH","EPOCH":"2026-01-19T07:28:56.006976","MEAN_MOTION":13.14504955,"ECCENTRICITY":0.00018729,"INCLINATION":87.9021,"RA_OF_ASC_NODE":319.3944,"ARG_OF_PERICENTER":86.6548,"MEAN_ANOMALY":273.4796,"EPHEMERIS_TYPE":0,"CLASSIFICATION_TYPE":"U","NORAD_CAT_ID":48241,"ELEMENT_SET_NO":999,"REV_AT_EPOCH":22882,"BSTAR":-0.00036534959,"MEAN_MOTION_DOT":-1.23e-6,"MEAN_MOTION_DDOT":0},{"OBJECT_NAME":"ONEWEB-0207","OBJECT_ID":"2021-031AJ","EPOCH":"2026-01-19T07:00:11.716992","MEAN_MOTION":13.14501008,"ECCENTRICITY":0.00019045,"INCLINATION":87.903,"RA_OF_ASC_NODE":319.3657,"ARG_OF_PERICENTER":83.8433,"MEAN_ANOMALY":276.2913,"EPHEMERIS_TYPE":0,"CLASSIFICATION_TYPE":"U","NORAD_CAT_ID":48242,"ELEMENT_SET_NO":999,"REV_AT_EPOCH":22873,"BSTAR":0.00044624737,"MEAN_MOTION_DOT":1.78e-6,"MEAN_MOTION_DDOT":0},{"OBJECT_NAME":"ONEWEB-0208","OBJECT_ID":"2021-031AK","EPOCH":"2026-01-19T06:33:56.505024","MEAN_MOTION":13.14504564,"ECCENTRICITY":0.00014724,"INCLINATION":87.903,"RA_OF_ASC_NODE":319.3824,"ARG_OF_PERICENTER":83.7123,"MEAN_ANOMALY":276.4175,"EPHEMERIS_TYPE":0,"CLASSIFICATION_TYPE":"U","NORAD_CAT_ID":48243,"ELEMENT_SET_NO":999,"REV_AT_EPOCH":22874,"BSTAR":0.00060354967,"MEAN_MOTION_DOT":2.37e-6,"MEAN_MOTION_DDOT":0},{"OBJECT_NAME":"ONEWEB-0200","OBJECT_ID":"2021-031AL","EPOCH":"2026-01-19T07:31:01.121952","MEAN_MOTION":13.14504754,"ECCENTRICITY":0.00016654,"INCLINATION":87.9029,"RA_OF_ASC_NODE":319.3635,"ARG_OF_PERICENTER":81.4266,"MEAN_ANOMALY":278.7052,"EPHEMERIS_TYPE":0,"CLASSIFICATION_TYPE":"U","NORAD_CAT_ID":48244,"ELEMENT_SET_NO":999,"REV_AT_EPOCH":22867,"BSTAR":-0.00038771604,"MEAN_MOTION_DOT":-1.31e-6,"MEAN_MOTION_DDOT":0},{"OBJECT_NAME":"ONEWEB-0217","OBJECT_ID":"2021-031AM","EPOCH":"2026-01-19T06:04:13.913184","MEAN_MOTION":13.14501283,"ECCENTRICITY":0.00014512,"INCLINATION":87.9036,"RA_OF_ASC_NODE":319.3733,"ARG_OF_PERICENTER":86.4839,"MEAN_ANOMALY":273.6456,"EPHEMERIS_TYPE":0,"CLASSIFICATION_TYPE":"U","NORAD_CAT_ID":48245,"ELEMENT_SET_NO":999,"REV_AT_EPOCH":22861,"BSTAR":-0.00026511922,"MEAN_MOTION_DOT":-8.6e-7,"MEAN_MOTION_DDOT":0},{"OBJECT_NAME":"ONEWEB-0211","OBJECT_ID":"2021-045A","EPOCH":"2026-01-19T06:22:08.585760","MEAN_MOTION":13.16139251,"ECCENTRICITY":0.00010997,"INCLINATION":87.9015,"RA_OF_ASC_NODE":288.8386,"ARG_OF_PERICENTER":76.814,"MEAN_ANOMALY":283.3113,"EPHEMERIS_TYPE":0,"CLASSIFICATION_TYPE":"U","NORAD_CAT_ID":48767,"ELEMENT_SET_NO":999,"REV_AT_EPOCH":22485,"BSTAR":0.00053119438,"MEAN_MOTION_DOT":2.15e-6,"MEAN_MOTION_DDOT":0},{"OBJECT_NAME":"ONEWEB-0223","OBJECT_ID":"2021-045B","EPOCH":"2026-01-19T06:33:09.206208","MEAN_MOTION":13.15548188,"ECCENTRICITY":0.00011793,"INCLINATION":87.9011,"RA_OF_ASC_NODE":288.9084,"ARG_OF_PERICENTER":64.6292,"MEAN_ANOMALY":295.496,"EPHEMERIS_TYPE":0,"CLASSIFICATION_TYPE":"U","NORAD_CAT_ID":48768,"ELEMENT_SET_NO":999,"REV_AT_EPOCH":22482,"BSTAR":0.00048767906,"MEAN_MOTION_DOT":1.96e-6,"MEAN_MOTION_DDOT":0},{"OBJECT_NAME":"ONEWEB-0230","OBJECT_ID":"2021-045C","EPOCH":"2026-01-19T04:02:32.855712","MEAN_MOTION":13.15549613,"ECCENTRICITY":0.00017215,"INCLINATION":87.9004,"RA_OF_ASC_NODE":288.9563,"ARG_OF_PERICENTER":73.2381,"MEAN_ANOMALY":286.8939,"EPHEMERIS_TYPE":0,"CLASSIFICATION_TYPE":"U","NORAD_CAT_ID":48769,"ELEMENT_SET_NO":999,"REV_AT_EPOCH":22507,"BSTAR":-4.390506e-6,"MEAN_MOTION_DOT":1.1e-7,"MEAN_MOTION_DDOT":0},{"OBJECT_NAME":"ONEWEB-0237","OBJECT_ID":"2021-045D","EPOCH":"2026-01-19T05:36:05.750496","MEAN_MOTION":13.155497,"ECCENTRICITY":0.00014384,"INCLINATION":87.9007,"RA_OF_ASC_NODE":288.9441,"ARG_OF_PERICENTER":65.2441,"MEAN_ANOMALY":294.8839,"EPHEMERIS_TYPE":0,"CLASSIFICATION_TYPE":"U","NORAD_CAT_ID":48770,"ELEMENT_SET_NO":999,"REV_AT_EPOCH":22480,"BSTAR":-0.00020891115,"MEAN_MOTION_DOT":-6.6e-7,"MEAN_MOTION_DDOT":0}]
